[{"OBJECT_NAME":"LING QIAO","OBJECT_ID":"2014-051A","EPOCH":"2026-03-09T23:57:46.118880","MEAN_MOTION":14.30251785,"ECCENTRICITY":0.00219198,"INCLINATION":98.707,"RA_OF_ASC_NODE":70.7191,"ARG_OF_PERICENTER":102.9977,"MEAN_ANOMALY":257.3655,"EPHEMERIS_TYPE":0,"CLASSIFICATION_TYPE":"U","NORAD_CAT_ID":40136,"ELEMENT_SET_NO":999,"REV_AT_EPOCH":60082,"BSTAR":-4.195914e-5,"MEAN_MOTION_DOT":-1.54e-6,"MEAN_MOTION_DDOT":0},{"OBJECT_NAME":"COSMOS 1269","OBJECT_ID":"1981-041A","EPOCH":"2026-03-09T17:22:04.606752","MEAN_MOTION":14.3310322,"ECCENTRICITY":0.00086332,"INCLINATION":74.055,"RA_OF_ASC_NODE":187.1532,"ARG_OF_PERICENTER":78.255,"MEAN_ANOMALY":281.9569,"EPHEMERIS_TYPE":0,"CLASSIFICATION_TYPE":"U","NORAD_CAT_ID":12442,"ELEMENT_SET_NO":999,"REV_AT_EPOCH":34173,"BSTAR":8.5332573e-5,"MEAN_MOTION_DOT":2.08e-6,"MEAN_MOTION_DDOT":0}]
